{"type": "FeatureCollection", "features": [ {"type": "Feature", "properties": {"norad_id": 66912, "name": "1998-067XY", "group": "last-30-days", "lat": 15.464292357495808, "lon": -28.606730551706395, "alt_km": 411.01035103723643, "timestamp": "2025-12-08T08:58:59.558521+00:00", "meta": {"OBJECT_NAME": "1998-067XY", "OBJECT_ID": "1998-067XY", "EPOCH": "2025-12-07T21:28:04.340352", "MEAN_MOTION": 15.50490946, "ECCENTRICITY": 0.00051234, "INCLINATION": 51.6298, "RA_OF_ASC_NODE": 166.4355, "ARG_OF_PERICENTER": 198.3714, "MEAN_ANOMALY": 161.709, "EPHEMERIS_TYPE": 0, "CLASSIFICATION_TYPE": "U", "NORAD_CAT_ID": 66912, "ELEMENT_SET_NO": 999, "REV_AT_EPOCH": 85, "BSTAR": 0.00087425229, "MEAN_MOTION_DOT": 0.00050656, "MEAN_MOTION_DDOT": 0}, "tle": {"line1": "1 66912U 98067XY  25341.89449468  .00050656  00000+0  87425-3 0  9991", "line2": "2 66912  51.6298 166.4355 0005123 198.3714 161.7090 15.50490946   851"}}, "geometry": {"type": "Point", "coordinates": [-28.606730551706395, 15.464292357495808]}}, {"type": "Feature", "properties": {"norad_id": 66913, "name": "2025-284A", "group": "last-30-days", "lat": -30.96291332233709, "lon": 129.4690617433077, "alt_km": 510.89214235982126, "timestamp": "2025-12-08T08:58:59.558531+00:00", "meta": {"OBJECT_NAME": "2025-284A", "OBJECT_ID": "2025-284A", "EPOCH": "2025-12-05T19:30:25.528608", "MEAN_MOTION": 15.20033669, "ECCENTRICITY": 0.00128266, "INCLINATION": 80.4023, "RA_OF_ASC_NODE": 138.5488, "ARG_OF_PERICENTER": 252.3263, "MEAN_ANOMALY": 107.6565, "EPHEMERIS_TYPE": 0, "CLASSIFICATION_TYPE": "U", "NORAD_CAT_ID": 66913, "ELEMENT_SET_NO": 999, "REV_AT_EPOCH": 7, "BSTAR": 0.00014555981, "MEAN_MOTION_DOT": 3.163e-05, "MEAN_MOTION_DDOT": 0}, "tle": {"line1": "1 66913U 25284A   25339.81279547  .00003163  00000+0  14556-3 0  9997", "line2": "2 66913  80.4023 138.5488 0012826 252.3263 107.6565 15.20033669    75"}}, "geometry": {"type": "Point", "coordinates": [129.4690617433077, -30.96291332233709]}}, {"type": "Feature", "properties": {"norad_id": 66915, "name": "HULIANWANG DIGUI 14A", "group": "last-30-days", "lat": 37.34460278546069, "lon": 174.90339586635395, "alt_km": 873.4764513374557, "timestamp": "2025-12-08T08:58:59.558541+00:00", "meta": {"OBJECT_NAME": "HULIANWANG DIGUI 14A", "OBJECT_ID": "2025-285A", "EPOCH": "2025-12-06T08:58:45.410016", "MEAN_MOTION": 14.06225102, "ECCENTRICITY": 0.00087698, "INCLINATION": 49.9887, "RA_OF_ASC_NODE": 143.2276, "ARG_OF_PERICENTER": 217.1051, "MEAN_ANOMALY": 142.9249, "EPHEMERIS_TYPE": 0, "CLASSIFICATION_TYPE": "U", "NORAD_CAT_ID": 66915, "ELEMENT_SET_NO": 999, "REV_AT_EPOCH": 1, "BSTAR": 1.8511052e-05, "MEAN_MOTION_DOT": -1.22e-06, "MEAN_MOTION_DDOT": 0}, "tle": {"line1": "1 66915U 25285A   25340.37413669 -.00000122  00000+0  18511-4 0  9997", "line2": "2 66915  49.9887 143.2276 0008769 217.1051 142.9249 14.06225102    11"}}, "geometry": {"type": "Point", "coordinates": [174.90339586635395, 37.34460278546069]}}, {"type": "Feature", "properties": {"norad_id": 66916, "name": "HULIANWANG DIGUI 14B", "group": "last-30-days", "lat": 36.18246075957877, "lon": 172.97212205445052, "alt_km": 872.8786514385538, "timestamp": "2025-12-08T08:58:59.558552+00:00", "meta": {"OBJECT_NAME": "HULIANWANG DIGUI 14B", "OBJECT_ID": "2025-285B", "EPOCH": "2025-12-06T12:23:28.538592", "MEAN_MOTION": 14.0595389, "ECCENTRICITY": 0.0008093, "INCLINATION": 50.0119, "RA_OF_ASC_NODE": 142.6984, "ARG_OF_PERICENTER": 262.9615, "MEAN_ANOMALY": 97.037, "EPHEMERIS_TYPE": 0, "CLASSIFICATION_TYPE": "U", "NORAD_CAT_ID": 66916, "ELEMENT_SET_NO": 999, "REV_AT_EPOCH": 3, "BSTAR": 1.7671e-05, "MEAN_MOTION_DOT": -1.23e-06, "MEAN_MOTION_DDOT": 0}, "tle": {"line1": "1 66916U 25285B   25340.51630253 -.00000123  00000+0  17671-4 0  9991", "line2": "2 66916  50.0119 142.6984 0008093 262.9615  97.0370 14.05953890    34"}}, "geometry": {"type": "Point", "coordinates": [172.97212205445052, 36.18246075957877]}}, {"type": "Feature", "properties": {"norad_id": 66917, "name": "HULIANWANG DIGUI 14C", "group": "last-30-days", "lat": 36.58512509255591, "lon": 173.6371826508017, "alt_km": 872.1352958892085, "timestamp": "2025-12-08T08:58:59.558562+00:00", "meta": {"OBJECT_NAME": "HULIANWANG DIGUI 14C", "OBJECT_ID": "2025-285C", "EPOCH": "2025-12-07T13:58:38.769888", "MEAN_MOTION": 14.06033336, "ECCENTRICITY": 0.00074839, "INCLINATION": 50.0006, "RA_OF_ASC_NODE": 138.3247, "ARG_OF_PERICENTER": 268.2767, "MEAN_ANOMALY": 91.7281, "EPHEMERIS_TYPE": 0, "CLASSIFICATION_TYPE": "U", "NORAD_CAT_ID": 66917, "ELEMENT_SET_NO": 999, "REV_AT_EPOCH": 18, "BSTAR": -1.0469054e-05, "MEAN_MOTION_DOT": -1.7e-06, "MEAN_MOTION_DDOT": 0}, "tle": {"line1": "1 66917U 25285C   25341.58239317 -.00000170  00000+0 -10469-4 0  9997", "line2": "2 66917  50.0006 138.3247 0007483 268.2767  91.7281 14.06033336   186"}}, "geometry": {"type": "Point", "coordinates": [173.6371826508017, 36.58512509255591]}}, {"type": "Feature", "properties": {"norad_id": 66918, "name": "HULIANWANG DIGUI 14D", "group": "last-30-days", "lat": 37.09474546788701, "lon": 174.49338436706785, "alt_km": 871.2574399180476, "timestamp": "2025-12-08T08:58:59.558572+00:00", "meta": {"OBJECT_NAME": "HULIANWANG DIGUI 14D", "OBJECT_ID": "2025-285D", "EPOCH": "2025-12-07T22:30:11.869632", "MEAN_MOTION": 14.06161856, "ECCENTRICITY": 0.00063662, "INCLINATION": 50.0031, "RA_OF_ASC_NODE": 136.8732, "ARG_OF_PERICENTER": 264.8794, "MEAN_ANOMALY": 95.1385, "EPHEMERIS_TYPE": 0, "CLASSIFICATION_TYPE": "U", "NORAD_CAT_ID": 66918, "ELEMENT_SET_NO": 999, "REV_AT_EPOCH": 23, "BSTAR": 5.873868e-06, "MEAN_MOTION_DOT": -1.43e-06, "MEAN_MOTION_DDOT": 0}, "tle": {"line1": "1 66918U 25285D   25341.93763738 -.00000143  00000+0  58739-5 0  9998", "line2": "2 66918  50.0031 136.8732 0006366 264.8794  95.1385 14.06161856   236"}}, "geometry": {"type": "Point", "coordinates": [174.49338436706785, 37.09474546788701]}}, {"type": "Feature", "properties": {"norad_id": 66919, "name": "HULIANWANG DIGUI 14E", "group": "last-30-days", "lat": 37.22479403866852, "lon": 174.71439855815643, "alt_km": 871.3548721117659, "timestamp": "2025-12-08T08:58:59.558582+00:00", "meta": {"OBJECT_NAME": "HULIANWANG DIGUI 14E", "OBJECT_ID": "2025-285E", "EPOCH": "2025-12-07T22:30:08.756640", "MEAN_MOTION": 14.06180364, "ECCENTRICITY": 0.00078534, "INCLINATION": 50.0053, "RA_OF_ASC_NODE": 136.8752, "ARG_OF_PERICENTER": 276.2161, "MEAN_ANOMALY": 83.7849, "EPHEMERIS_TYPE": 0, "CLASSIFICATION_TYPE": "U", "NORAD_CAT_ID": 66919, "ELEMENT_SET_NO": 999, "REV_AT_EPOCH": 23, "BSTAR": -1.3856152e-05, "MEAN_MOTION_DOT": -1.75e-06, "MEAN_MOTION_DDOT": 0}, "tle": {"line1": "1 66919U 25285E   25341.93760135 -.00000175  00000+0 -13856-4 0  9993", "line2": "2 66919  50.0053 136.8752 0007853 276.2161  83.7849 14.06180364   233"}}, "geometry": {"type": "Point", "coordinates": [174.71439855815643, 37.22479403866852]}}, {"type": "Feature", "properties": {"norad_id": 66920, "name": "HULIANWANG DIGUI 14F", "group": "last-30-days", "lat": 37.62935467114612, "lon": 175.41487257058887, "alt_km": 870.4272354429768, "timestamp": "2025-12-08T08:58:59.558594+00:00", "meta": {"OBJECT_NAME": "HULIANWANG DIGUI 14F", "OBJECT_ID": "2025-285F", "EPOCH": "2025-12-07T22:29:57.568704", "MEAN_MOTION": 14.06197734, "ECCENTRICITY": 0.0005825, "INCLINATION": 50.0078, "RA_OF_ASC_NODE": 136.8777, "ARG_OF_PERICENTER": 272.4455, "MEAN_ANOMALY": 87.5784, "EPHEMERIS_TYPE": 0, "CLASSIFICATION_TYPE": "U", "NORAD_CAT_ID": 66920, "ELEMENT_SET_NO": 999, "REV_AT_EPOCH": 23, "BSTAR": 0.00011290179, "MEAN_MOTION_DOT": 3.4e-07, "MEAN_MOTION_DDOT": 0}, "tle": {"line1": "1 66920U 25285F   25341.93747186  .00000034  00000+0  11290-3 0  9997", "line2": "2 66920  50.0078 136.8777 0005825 272.4455  87.5784 14.06197734   239"}}, "geometry": {"type": "Point", "coordinates": [175.41487257058887, 37.62935467114612]}}, {"type": "Feature", "properties": {"norad_id": 66921, "name": "HULIANWANG DIGUI 14G", "group": "last-30-days", "lat": 37.89307684577225, "lon": 175.87687614479933, "alt_km": 870.0927010948199, "timestamp": "2025-12-08T08:58:59.558604+00:00", "meta": {"OBJECT_NAME": "HULIANWANG DIGUI 14G", "OBJECT_ID": "2025-285G", "EPOCH": "2025-12-07T22:29:53.715264", "MEAN_MOTION": 14.06338038, "ECCENTRICITY": 0.0006916, "INCLINATION": 50.0103, "RA_OF_ASC_NODE": 136.8784, "ARG_OF_PERICENTER": 279.5694, "MEAN_ANOMALY": 80.443, "EPHEMERIS_TYPE": 0, "CLASSIFICATION_TYPE": "U", "NORAD_CAT_ID": 66921, "ELEMENT_SET_NO": 999, "REV_AT_EPOCH": 23, "BSTAR": 4.849797e-06, "MEAN_MOTION_DOT": -1.44e-06, "MEAN_MOTION_DDOT": 0}, "tle": {"line1": "1 66921U 25285G   25341.93742726 -.00000144  00000+0  48498-5 0  9998", "line2": "2 66921  50.0103 136.8784 0006916 279.5694  80.4430 14.06338038   236"}}, "geometry": {"type": "Point", "coordinates": [175.87687614479933, 37.89307684577225]}}, {"type": "Feature", "properties": {"norad_id": 66922, "name": "HULIANWANG DIGUI 14H", "group": "last-30-days", "lat": 38.35646590058068, "lon": 176.71442484459035, "alt_km": 869.2348069477521, "timestamp": "2025-12-08T08:58:59.558614+00:00", "meta": {"OBJECT_NAME": "HULIANWANG DIGUI 14H", "OBJECT_ID": "2025-285H", "EPOCH": "2025-12-07T22:29:43.113120", "MEAN_MOTION": 14.0645126, "ECCENTRICITY": 0.00068701, "INCLINATION": 50.0066, "RA_OF_ASC_NODE": 136.8749, "ARG_OF_PERICENTER": 285.9576, "MEAN_ANOMALY": 74.0572, "EPHEMERIS_TYPE": 0, "CLASSIFICATION_TYPE": "U", "NORAD_CAT_ID": 66922, "ELEMENT_SET_NO": 999, "REV_AT_EPOCH": 23, "BSTAR": -1.4400517e-05, "MEAN_MOTION_DOT": -1.76e-06, "MEAN_MOTION_DDOT": 0}, "tle": {"line1": "1 66922U 25285H   25341.93730455 -.00000176  00000+0 -14401-4 0  9997", "line2": "2 66922  50.0066 136.8749 0006870 285.9576  74.0572 14.06451260   234"}}, "geometry": {"type": "Point", "coordinates": [176.71442484459035, 38.35646590058068]}}]}